STARLINK-35759          
1 69246U 26117J   26168.48525942  .00240980  00000+0  11271-2 0  9992
2 69246  53.1571 241.9744 0000920  67.0730 293.0390 15.82060700  3026
STARLINK-37238          
1 69247U 26117K   26168.48081801  .00187427  00000+0  88358-3 0  9991
2 69247  53.1569 241.9431 0000905  75.6332 284.4792 15.82041837  3023
STARLINK-37412          
1 69248U 26117L   26168.47744722  .00200346  00000+0  94241-3 0  9993
2 69248  53.1569 241.9208 0000920  74.4253 285.6871 15.82051668  3026
STARLINK-37398          
1 69249U 26117M   26168.48197284  .00214637  00000+0  10615-2 0  9990
2 69249  53.1577 241.9512 0001119  54.3609 305.7517 15.80928548  3026
STARLINK-37499          
1 69250U 26117N   26168.47573029  .00125637  00000+0  59818-3 0  9996
2 69250  53.1570 241.9085 0001090  91.8335 268.2813 15.82023027  3028
STARLINK-37489          
1 69251U 26117P   26168.47396965  .00218474  00000+0  10248-2 0  9994
2 69251  53.1574 241.8978 0000856  75.0241 285.0877 15.82060121  3025
STARLINK-37434          
1 69252U 26117Q   26168.47099889  .00160314  00000+0  75874-3 0  9996
2 69252  53.1571 241.8763 0000896  87.9238 272.1888 15.82038807  3022
STARLINK-37368          
1 69253U 26117R   26168.46425545  .00131815  00000+0  62693-3 0  9997
2 69253  53.1576 241.8307 0001077  92.0616 268.0530 15.82024956  3029
STARLINK-37517          
1 69254U 26117S   26168.46293656  .00170819  00000+0  80744-3 0  9998
2 69254  53.1572 241.8215 0000907  91.9919 268.1208 15.82033835  3028
STARLINK-37378          
1 69255U 26117T   26168.46260627  .00188312  00000+0  88753-3 0  9996
2 69255  53.1577 241.8194 0001057  64.0253 296.0879 15.82044653  3023
STARLINK-37396          
1 69256U 26117U   26168.46015164  .00170479  00000+0  80561-3 0  9995
2 69256  53.1571 241.8009 0000520 106.8793 253.2287 15.82040519  3026
STARLINK-37508          
1 69257U 26117V   26168.46250975  .00183751  00000+0  91387-3 0  9992
2 69257  53.1577 241.8166 0000777  38.6673 321.4406 15.80895721  3022
STARLINK-37276          
1 69258U 26117W   26168.43554822  .00210696  00000+0  10423-2 0  9998
2 69258  53.1567 241.6327 0000947  76.3932 283.7196 15.80933578  3024
STARLINK-37518          
1 69259U 26117X   26168.49999296  .00235532  00000+0  11596-2 0  9991
2 69259  53.1567 241.3254 0001507  35.6103 324.5020 15.80966438  3034
STARLINK-37478          
1 69260U 26117Y   26168.50021948  .00266519  00000+0  13067-2 0  9999
2 69260  53.1571 241.3261 0001163  51.7959 308.3169 15.80971056  3031
STARLINK-37506          
1 69261U 26117Z   26168.49973190  .00280640  00000+0  13738-2 0  9999
2 69261  53.1567 241.3224 0001180  57.5356 302.5781 15.80966000  3039
STARLINK-37503          
1 69262U 26117AA  26168.49947579  .00191273  00000+0  94906-3 0  9992
2 69262  53.1570 241.3212 0000892  69.7690 290.3429 15.80924300  3036
STARLINK-37502          
1 69263U 26117AB  26168.49859862  .06518111  00000+0  22810-1 0  9993
2 69263  53.1571 241.3142 0002960 330.7269  29.3589 15.84417157  3039
STARLINK-37486          
1 69264U 26117AC  26168.49774367  .00183946  00000+0  91385-3 0  9993
2 69264  53.1568 241.3085 0001346  39.6080 320.5040 15.80918674  3039
STARLINK-37435          
1 69265U 26117AD  26168.43573454  .06224398  00000+0  22558-1 0  9999
2 69265  53.1568 241.6337 0009209 263.8986  96.0989 15.83884653  3023
STARLINK-37464          
1 69266U 26117AE  26168.49455792  .00210766  00000+0  99021-3 0  9999
2 69266  53.1567 241.2853 0001270  49.7059 310.4075 15.82048342  3030
KUIPER-00282            
1 69267U 26118A   26168.48276645  .00022065  00000+0  66477-3 0  9990
2 69267  51.8594  52.1456 0012188 182.7457 177.3463 15.34187987  4021
KUIPER-00383            
1 69268U 26118B   26168.47973088 -.00133350  00000+0 -40254-2 0  9991
2 69268  51.8597  52.1270 0011104 179.5688 180.5309 15.34140887  4029
KUIPER-00527            
1 69269U 26118C   26168.47495362  .00002573  00000+0  86302-4 0  9992
2 69269  51.8630  52.0989 0010235 175.8379 184.2694 15.34760162  4026
KUIPER-00562            
1 69270U 26118D   26168.50602882  .00031269  00000+0  81277-3 0  9994
2 69270  51.8722  51.5662 0001735 115.4834 244.6333 15.38661776  4030
KUIPER-00570            
1 69271U 26118E   26168.47730646  .00017058  00000+0  51017-3 0  9990
2 69271  51.8583  52.1090 0011578 185.7698 174.3155 15.34605822  4028
KUIPER-00572            
1 69272U 26118F   26168.20054223  .00011216  00000+0  31498-3 0  9993
2 69272  51.8680  53.2692 0007105 170.6427 189.4693 15.37011270  3980
KUIPER-00581            
1 69273U 26118G   26168.46462035  .00019184  00000+0  53648-3 0  9999
2 69273  51.8664  52.0366 0008751 176.0472 184.0585 15.36656180  4117
KUIPER-00584            
1 69274U 26118H   26168.50003471  .00052358  00000+0  15508-2 0  9992
2 69274  51.8610  52.0289 0011860 188.9143 283.9293 15.34290851  2621
KUIPER-00587            
1 69275U 26118J   26168.46396582  .00011376  00000+0  32250-3 0  9995
2 69275  51.8635  52.0295 0008119 178.7708 181.3299 15.36693887  4024
