OBJECT_NAME,OBJECT_ID,EPOCH,MEAN_MOTION,ECCENTRICITY,INCLINATION,RA_OF_ASC_NODE,ARG_OF_PERICENTER,MEAN_ANOMALY,EPHEMERIS_TYPE,CLASSIFICATION_TYPE,NORAD_CAT_ID,ELEMENT_SET_NO,REV_AT_EPOCH,BSTAR,MEAN_MOTION_DOT,MEAN_MOTION_DDOT
STARLINK-35759,2026-117J,2026-06-17T11:38:46.413888,15.82060700,.000092,53.1571,241.9744,67.0730,293.0390,0,U,69246,999,302,.11271E-2,.24098E-2,0
STARLINK-37238,2026-117K,2026-06-17T11:32:22.676064,15.82041837,.0000905,53.1569,241.9431,75.6332,284.4792,0,U,69247,999,302,.88358E-3,.187427E-2,0
STARLINK-37412,2026-117L,2026-06-17T11:27:31.439808,15.82051668,.000092,53.1569,241.9208,74.4253,285.6871,0,U,69248,999,302,.94241E-3,.200346E-2,0
STARLINK-37398,2026-117M,2026-06-17T11:34:02.453376,15.80928548,.0001119,53.1577,241.9512,54.3609,305.7517,0,U,69249,999,302,.10615E-2,.214637E-2,0
STARLINK-37499,2026-117N,2026-06-17T11:25:03.097056,15.82023027,.000109,53.1570,241.9085,91.8335,268.2813,0,U,69250,999,302,.59818E-3,.125637E-2,0
STARLINK-37489,2026-117P,2026-06-17T11:22:30.977760,15.82060121,.0000856,53.1574,241.8978,75.0241,285.0877,0,U,69251,999,302,.10248E-2,.218474E-2,0
STARLINK-37434,2026-117Q,2026-06-17T11:18:14.304096,15.82038807,.0000896,53.1571,241.8763,87.9238,272.1888,0,U,69252,999,302,.75874E-3,.160314E-2,0
STARLINK-37368,2026-117R,2026-06-17T11:08:31.670880,15.82024956,.0001077,53.1576,241.8307,92.0616,268.0530,0,U,69253,999,302,.62693E-3,.131815E-2,0
STARLINK-37517,2026-117S,2026-06-17T11:06:37.718784,15.82033835,.0000907,53.1572,241.8215,91.9919,268.1208,0,U,69254,999,302,.80744E-3,.170819E-2,0
STARLINK-37378,2026-117T,2026-06-17T11:06:09.181728,15.82044653,.0001057,53.1577,241.8194,64.0253,296.0879,0,U,69255,999,302,.88753E-3,.188312E-2,0
STARLINK-37396,2026-117U,2026-06-17T11:02:37.101696,15.82040519,.000052,53.1571,241.8009,106.8793,253.2287,0,U,69256,999,302,.80561E-3,.170479E-2,0
STARLINK-37508,2026-117V,2026-06-17T11:06:00.842400,15.80895721,.0000777,53.1577,241.8166,38.6673,321.4406,0,U,69257,999,302,.91387E-3,.183751E-2,0
STARLINK-37276,2026-117W,2026-06-17T10:27:11.366208,15.80933578,.0000947,53.1567,241.6327,76.3932,283.7196,0,U,69258,999,302,.10423E-2,.210696E-2,0
STARLINK-37518,2026-117X,2026-06-17T11:59:59.391744,15.80966438,.0001507,53.1567,241.3254,35.6103,324.5020,0,U,69259,999,303,.11596E-2,.235532E-2,0
STARLINK-37478,2026-117Y,2026-06-17T12:00:18.963072,15.80971056,.0001163,53.1571,241.3261,51.7959,308.3169,0,U,69260,999,303,.13067E-2,.266519E-2,0
STARLINK-37506,2026-117Z,2026-06-17T11:59:36.836160,15.80966000,.000118,53.1567,241.3224,57.5356,302.5781,0,U,69261,999,303,.13738E-2,.28064E-2,0
STARLINK-37503,2026-117AA,2026-06-17T11:59:14.708256,15.80924300,.0000892,53.1570,241.3212,69.7690,290.3429,0,U,69262,999,303,.94906E-3,.191273E-2,0
STARLINK-37502,2026-117AB,2026-06-17T11:57:58.920768,15.84417157,.000296,53.1571,241.3142,330.7269,29.3589,0,U,69263,999,303,.2281E-1,.6518111E-1,0
STARLINK-37486,2026-117AC,2026-06-17T11:56:45.053088,15.80918674,.0001346,53.1568,241.3085,39.6080,320.5040,0,U,69264,999,303,.91385E-3,.183946E-2,0
STARLINK-37435,2026-117AD,2026-06-17T10:27:27.464256,15.83884653,.0009209,53.1568,241.6337,263.8986,96.0989,0,U,69265,999,302,.22558E-1,.6224398E-1,0
STARLINK-37464,2026-117AE,2026-06-17T11:52:09.804288,15.82048342,.000127,53.1567,241.2853,49.7059,310.4075,0,U,69266,999,303,.99021E-3,.210766E-2,0
KUIPER-00282,2026-118A,2026-06-17T11:35:11.021280,15.34187987,.0012188,51.8594,52.1456,182.7457,177.3463,0,U,69267,999,402,.66477E-3,.22065E-3,0
KUIPER-00383,2026-118B,2026-06-17T11:30:48.748032,15.34140887,.0011104,51.8597,52.1270,179.5688,180.5309,0,U,69268,999,402,-.40254E-2,-.13335E-2,0
KUIPER-00527,2026-118C,2026-06-17T11:23:55.992768,15.34760162,.0010235,51.8630,52.0989,175.8379,184.2694,0,U,69269,999,402,.86302E-4,.2573E-4,0
KUIPER-00562,2026-118D,2026-06-17T12:08:40.890048,15.38661776,.0001735,51.8722,51.5662,115.4834,244.6333,0,U,69270,999,403,.81277E-3,.31269E-3,0
KUIPER-00570,2026-118E,2026-06-17T11:27:19.278144,15.34605822,.0011578,51.8583,52.1090,185.7698,174.3155,0,U,69271,999,402,.51017E-3,.17058E-3,0
KUIPER-00572,2026-118F,2026-06-17T04:48:46.848672,15.37011270,.0007105,51.8680,53.2692,170.6427,189.4693,0,U,69272,999,398,.31498E-3,.11216E-3,0
KUIPER-00581,2026-118G,2026-06-17T11:09:03.198240,15.36656180,.0008751,51.8664,52.0366,176.0472,184.0585,0,U,69273,999,411,.53648E-3,.19184E-3,0
KUIPER-00584,2026-118H,2026-06-17T12:00:02.998944,15.34290851,.001186,51.8610,52.0289,188.9143,283.9293,0,U,69274,999,262,.15508E-2,.52358E-3,0
KUIPER-00587,2026-118J,2026-06-17T11:08:06.646848,15.36693887,.0008119,51.8635,52.0295,178.7708,181.3299,0,U,69275,999,402,.3225E-3,.11376E-3,0
